{
  "norad_id": 51639,
  "name": "ONEWEB-0445",
  "history": [
    {
      "epoch": "2026-03-28T20:46:49.037376Z",
      "apogee_km": 1223.237662016405,
      "perigee_km": 1220.1714299462647,
      "latitude_deg": -5.903843278833066e-05,
      "longitude_deg": -85.74997659561298,
      "height_km": 1224.220334366899,
      "semi_major_axis_km": 7599.841545981335,
      "eccentricity": 0.00020173,
      "inclination_deg": 87.8816,
      "raan_deg": 52.2345,
      "arg_perigee_deg": 76.0929,
      "mean_anomaly_deg": 284.0422,
      "mean_motion_rev_day": 13.10376077
    },
    {
      "epoch": "2026-03-28T22:36:46.307232Z",
      "apogee_km": 1223.2341348469654,
      "perigee_km": 1220.177478070209,
      "latitude_deg": 1.7847225837761964e-05,
      "longitude_deg": -113.329059375085,
      "height_km": 1224.2210396247879,
      "semi_major_axis_km": 7599.842806458587,
      "eccentricity": 0.0002011,
      "inclination_deg": 87.8817,
      "raan_deg": 52.2193,
      "arg_perigee_deg": 76.027,
      "mean_anomaly_deg": 284.1081,
      "mean_motion_rev_day": 13.10375751
    },
    {
      "epoch": "2026-03-30T03:56:02.570496Z",
      "apogee_km": 1223.2169817920103,
      "perigee_km": 1220.1998431632574,
      "latitude_deg": 3.739128160457685e-05,
      "longitude_deg": 165.4057001710691,
      "height_km": 1224.220498243888,
      "semi_major_axis_km": 7599.8454124776335,
      "eccentricity": 0.0001985,
      "inclination_deg": 87.8817,
      "raan_deg": 51.976,
      "arg_perigee_deg": 75.7151,
      "mean_anomaly_deg": 284.4197,
      "mean_motion_rev_day": 13.10375077
    },
    {
      "epoch": "2026-03-30T09:25:54.342048Z",
      "apogee_km": 1223.2220262402861,
      "perigee_km": 1220.1919684385475,
      "latitude_deg": -7.337284677163565e-05,
      "longitude_deg": 82.66849845551579,
      "height_km": 1224.2216085725333,
      "semi_major_axis_km": 7599.843997339417,
      "eccentricity": 0.00019935,
      "inclination_deg": 87.8819,
      "raan_deg": 51.9303,
      "arg_perigee_deg": 75.8757,
      "mean_anomaly_deg": 284.2591,
      "mean_motion_rev_day": 13.10375443
    },
    {
      "epoch": "2026-03-30T20:25:37.943904Z",
      "apogee_km": 1223.2156792167416,
      "perigee_km": 1220.2003647058273,
      "latitude_deg": 4.824175847879874e-05,
      "longitude_deg": -82.80603781868834,
      "height_km": 1224.220985621994,
      "semi_major_axis_km": 7599.845021961284,
      "eccentricity": 0.00019838,
      "inclination_deg": 87.882,
      "raan_deg": 51.839,
      "arg_perigee_deg": 75.7406,
      "mean_anomaly_deg": 284.3942,
      "mean_motion_rev_day": 13.10375178
    },
    {
      "epoch": "2026-03-31T07:25:21.599328Z",
      "apogee_km": 1223.2209280589168,
      "perigee_km": 1220.2013563950477,
      "latitude_deg": 3.024534374082253e-05,
      "longitude_deg": 111.7192970353683,
      "height_km": 1224.2201880305176,
      "semi_major_axis_km": 7599.848142226982,
      "eccentricity": 0.00019866,
      "inclination_deg": 87.8822,
      "raan_deg": 51.7478,
      "arg_perigee_deg": 75.6077,
      "mean_anomaly_deg": 284.5271,
      "mean_motion_rev_day": 13.10374371
    },
    {
      "epoch": "2026-04-01T14:34:35.336352Z",
      "apogee_km": 1223.2024833970054,
      "perigee_km": 1220.22942092212,
      "latitude_deg": 2.1347342501024647e-05,
      "longitude_deg": 2.8743190729573227,
      "height_km": 1224.21783051146,
      "semi_major_axis_km": 7599.852952159562,
      "eccentricity": 0.0001956,
      "inclination_deg": 87.8823,
      "raan_deg": 51.4895,
      "arg_perigee_deg": 75.0895,
      "mean_anomaly_deg": 285.0449,
      "mean_motion_rev_day": 13.10373127
    },
    {
      "epoch": "2026-04-02T08:54:06.628320Z",
      "apogee_km": 1223.3548742766843,
      "perigee_km": 1219.9600460913216,
      "latitude_deg": 3.2320687402054815e-05,
      "longitude_deg": 87.08754127195733,
      "height_km": 1224.0845048557053,
      "semi_major_axis_km": 7599.794460184003,
      "eccentricity": 0.00022335,
      "inclination_deg": 87.884,
      "raan_deg": 51.3357,
      "arg_perigee_deg": 74.3855,
      "mean_anomaly_deg": 285.7519,
      "mean_motion_rev_day": 13.10388255
    }
  ]
}